NORAD_CAT_ID,OBJECT_NAME,OBJECT_TYPE,EPOCH,MEAN_MOTION,ECCENTRICITY,INCLINATION,RA_OF_ASC_NODE,ARG_OF_PERICENTER,MEAN_ANOMALY,BSTAR,MEAN_MOTION_DOT,MEAN_MOTION_DDOT,TLE_LINE0,TLE_LINE1,TLE_LINE2,SEMIMAJOR_AXIS,PERIOD,APOGEE,PERIGEE,DECAYED
53866.0,STARLINK-4762,PAYLOAD,2023-09-18 12:49:45,15.08846315,0.0001463,53.2179,358.7503,82.882,277.2338,0.00011934,1.612e-05,0.0,0 STARLINK-4762,1 53866U 22114BA  23261.53455313  .00001612  00000-0  11934-3 0  9992,2 53866  53.2179 358.7503 0001463  82.8820 277.2338 15.08846315 57049,6917.861,95.437,540.738,538.714,0.0
53866.0,STARLINK-4762,PAYLOAD,2023-09-18 14:25:08,15.08849544,0.0001413,53.2179,358.4521,85.5318,274.5836,0.00015629,2.201e-05,0.0,0 STARLINK-4762,1 53866U 22114BA  23261.60079085  .00002201  00000-0  15629-3 0  9998,2 53866  53.2179 358.4521 0001413  85.5318 274.5836 15.08849544 57054,6917.851,95.437,540.694,538.739,0.0
53866.0,STARLINK-4762,PAYLOAD,2023-09-19 17:26:40,15.08872499,0.0001442,53.2181,353.3951,108.3437,251.7712,0.00055523,8.567e-05,0.0,0 STARLINK-4762,1 53866U 22114BA  23262.72685530  .00008567  00000-0  55523-3 0  9998,2 53866  53.2181 353.3951 0001442 108.3437 251.7712 15.08872499 56689,6917.781,95.435,540.644,538.649,0.0
53866.0,STARLINK-4762,PAYLOAD,2023-09-20 12:31:19,15.08832815,0.0001545,53.2185,349.8326,72.8859,287.2303,-0.00016087,-2.847e-05,0.0,0 STARLINK-4762,1 53866U 22114BA  23263.52175327 -.00002847  00000-0 -16087-3 0  9994,2 53866  53.2185 349.8326 0001545  72.8859 287.2303 15.08832815 56808,6917.902,95.438,540.836,538.699,0.0
53866.0,STARLINK-4762,PAYLOAD,2023-09-20 17:17:28,15.08832513,0.0001398,53.2185,348.9386,83.228,276.8871,-7.6855e-05,-1.511e-05,0.0,0 STARLINK-4762,1 53866U 22114BA  23263.72047227 -.00001511  00000-0 -76855-4 0  9990,2 53866  53.2185 348.9386 0001398  83.2280 276.8871 15.08832513 57376,6917.903,95.438,540.735,538.801,0.0
53866.0,STARLINK-4762,PAYLOAD,2023-09-21 10:46:44,15.08831997,0.00015,53.2177,345.6655,74.6085,285.5073,0.00011803,1.591e-05,0.0,0 STARLINK-4762,1 53866U 22114BA  23264.44912093  .00001591  00000-0  11803-3 0  9999,2 53866  53.2177 345.6655 0001500  74.6085 285.5073 15.08831997 57480,6917.905,95.438,540.808,538.732,0.0
53866.0,STARLINK-4762,PAYLOAD,2023-09-21 17:08:16,15.08844791,0.0001421,53.2182,344.475,78.834,281.2812,0.00025371,3.753e-05,0.0,0 STARLINK-4762,1 53866U 22114BA  23264.71407662  .00003753  00000-0  25371-3 0  9997,2 53866  53.2182 344.4750 0001421  78.8340 281.2812 15.08844791 56985,6917.866,95.437,540.714,538.748,0.0
53866.0,STARLINK-4762,PAYLOAD,2023-09-22 10:37:30,15.08866456,0.000152,53.2178,341.2043,71.7521,288.3637,0.00079346,0.00012372,0.0,0 STARLINK-4762,1 53866U 22114BA  23265.44271029  .00012372  00000-0  79346-3 0  9992,2 53866  53.2178 341.2043 0001520  71.7521 288.3637 15.08866456 57091,6917.8,95.436,540.716,538.613,0.0
53866.0,STARLINK-4762,PAYLOAD,2023-09-22 12:12:53,15.08874509,0.0001553,53.2179,340.9074,72.2802,287.836,0.00099575,0.0001561,0.0,0 STARLINK-4762,1 53866U 22114BA  23265.50894794  .00015610  00000-0  99575-3 0  9993,2 53866  53.2179 340.9074 0001553  72.2802 287.8360 15.08874509 57642,6917.775,95.435,540.714,538.566,0.0
53866.0,STARLINK-4762,PAYLOAD,2023-09-22 16:59:01,15.08890156,0.000155,53.218,340.0148,71.762,288.354,0.0012251,0.0001929,0.0,0 STARLINK-4762,1 53866U 22114BA  23265.70766054  .00019290  00000-0  12251-2 0  9995,2 53866  53.2180 340.0148 0001550  71.7620 288.3540 15.08890156 57132,6917.727,95.434,540.664,538.52,0.0
53866.0,STARLINK-4762,PAYLOAD,2023-09-23 12:03:40,15.08831694,0.0001395,53.2173,336.4475,96.1822,263.933,0.001295,0.00020377,0.0,0 STARLINK-4762,1 53866U 22114BA  23266.50255136  .00020377  00000-0  12950-2 0  9992,2 53866  53.2173 336.4475 0001395  96.1822 263.9330 15.08831694 57259,6917.906,95.438,540.736,538.806,0.0
53866.0,STARLINK-4762,PAYLOAD,2023-09-23 21:35:59,15.0883596,0.0001445,53.2171,334.6642,87.8536,272.2622,0.00092755,0.00014503,0.0,0 STARLINK-4762,1 53866U 22114BA  23266.89999467  .00014503  00000-0  92755-3 0  9992,2 53866  53.2171 334.6642 0001445  87.8536 272.2622 15.08835960 57312,6917.893,95.438,540.757,538.758,0.0
53866.0,STARLINK-4762,PAYLOAD,2023-09-24 10:19:05,15.08827951,0.0001745,53.2178,332.2844,84.6073,275.5118,0.00010913,1.449e-05,0.0,0 STARLINK-4762,1 53866U 22114BA  23267.42992053  .00001449  00000-0  10913-3 0  9997,2 53866  53.2178 332.2844 0001745  84.6073 275.5118 15.08827951 57396,6917.917,95.438,540.989,538.575,0.0
53866.0,STARLINK-4762,PAYLOAD,2023-09-24 11:54:27,15.08839046,0.0001575,53.2175,331.9863,83.9833,276.1339,0.00022459,3.288e-05,0.0,0 STARLINK-4762,1 53866U 22114BA  23267.49615695  .00003288  00000-0  22459-3 0  9999,2 53866  53.2175 331.9863 0001575  83.9833 276.1339 15.08839046 57948,6917.883,95.438,540.838,538.659,0.0
53866.0,STARLINK-4762,PAYLOAD,2023-09-24 16:40:37,15.08841538,0.0001574,53.2172,331.094,88.3194,271.7979,0.00082582,0.0001288,0.0,0 STARLINK-4762,1 53866U 22114BA  23267.69487886  .00012880  00000-0  82582-3 0  9991,2 53866  53.2172 331.0940 0001574  88.3194 271.7979 15.08841538 57434,6917.876,95.437,540.83,538.652,0.0
53866.0,STARLINK-4762,PAYLOAD,2023-09-25 10:09:52,15.08839357,0.0001412,53.2169,327.8217,104.0011,256.1138,0.0002298,3.371e-05,0.0,0 STARLINK-4762,1 53866U 22114BA  23268.42352008  .00003371  00000-0  22980-3 0  9991,2 53866  53.2169 327.8217 0001412 104.0011 256.1138 15.08839357 57547,6917.882,95.438,540.724,538.771,0.0
53866.0,STARLINK-4762,PAYLOAD,2023-09-25 11:45:15,15.08851299,0.0001581,53.2178,327.5274,86.8073,273.31,0.00047323,7.254e-05,0.0,0 STARLINK-4762,1 53866U 22114BA  23268.48975796  .00007254  00000-0  47323-3 0  9994,2 53866  53.2178 327.5274 0001581  86.8073 273.3100 15.08851299 58099,6917.846,95.437,540.805,538.617,0.0
53866.0,STARLINK-4762,PAYLOAD,2023-09-25 16:31:24,15.08855915,0.0001442,53.217,326.6326,88.3683,271.7474,0.00048285,7.408e-05,0.0,0 STARLINK-4762,1 53866U 22114BA  23268.68847397  .00007408  00000-0  48285-3 0  9990,2 53866  53.2170 326.6326 0001442  88.3683 271.7474 15.08855915 57587,6917.832,95.437,540.694,538.699,0.0
53866.0,STARLINK-4762,PAYLOAD,2023-09-26 10:00:40,15.0882188,0.0001859,53.2179,323.3607,80.9122,279.208,-0.0001718,-3.02e-05,0.0,0 STARLINK-4762,1 53866U 22114BA  23269.41713381 -.00003020  00000-0 -17180-3 0  9995,2 53866  53.2179 323.3607 0001859  80.9122 279.2080 15.08821880 57692,6917.936,95.439,541.087,538.515,0.0
53866.0,STARLINK-4762,PAYLOAD,2023-09-26 13:11:26,15.08829593,0.0001834,53.2183,322.7623,101.5787,258.5411,-4.3366e-05,-9.78e-06,0.0,0 STARLINK-4762,1 53866U 22114BA  23269.54961147 -.00000978  00000-0 -43366-4 0  9999,2 53866  53.2183 322.7623 0001834 101.5787 258.5411 15.08829593 58258,6917.912,95.438,541.046,538.508,0.0
53866.0,STARLINK-4762,PAYLOAD,2023-09-27 03:29:54,15.08845369,0.0001713,53.2177,320.0882,96.904,263.2148,0.00036837,5.58e-05,0.0,0 STARLINK-4762,1 53866U 22114BA  23270.14576836  .00005580  00000-0  36837-3 0  9990,2 53866  53.2177 320.0882 0001713  96.9040 263.2148 15.08845369 57803,6917.864,95.437,540.914,538.544,0.0
53866.0,STARLINK-4762,PAYLOAD,2023-09-27 09:51:26,15.08865236,0.0001752,53.2162,318.9019,79.0068,281.1122,0.0012611,0.00019853,0.0,0 STARLINK-4762,1 53866U 22114BA  23270.41072782  .00019853  00000-0  12611-2 0  9992,2 53866  53.2162 318.9019 0001752  79.0068 281.1122 15.08865236 58380,6917.803,95.436,540.88,538.456,0.0
53866.0,STARLINK-4762,PAYLOAD,2023-09-27 22:34:31,15.08856861,0.0001334,53.2167,316.5229,88.647,271.4675,0.00033817,5.101e-05,0.0,0 STARLINK-4762,1 53866U 22114BA  23270.94064411  .00005101  00000-0  33817-3 0  9993,2 53866  53.2167 316.5229 0001334  88.6470 271.4675 15.08856861 57929,6917.829,95.436,540.617,538.771,0.0
53866.0,STARLINK-4762,PAYLOAD,2023-09-28 09:42:13,15.08839999,0.0001706,53.2161,314.4424,87.2129,272.9058,8.3425e-05,1.04e-05,0.0,0 STARLINK-4762,1 53866U 22114BA  23271.40432741  .00001040  00000-0  83425-4 0  9999,2 53866  53.2161 314.4424 0001706  87.2129 272.9058 15.08839999 57997,6917.88,95.438,540.926,538.565,0.0
53866.0,STARLINK-4762,PAYLOAD,2023-09-29 09:33:01,15.08845296,0.0001754,53.216,309.982,92.4413,267.678,0.00059675,9.223e-05,0.0,0 STARLINK-4762,1 53866U 22114BA  23272.39793135  .00009223  00000-0  59675-3 0  9995,2 53866  53.2160 309.9820 0001754  92.4413 267.6780 15.08845296 58689,6917.864,95.437,540.943,538.516,0.0
53866.0,STARLINK-4762,PAYLOAD,2023-09-29 14:19:10,15.08855443,0.0001735,53.2158,309.0891,95.5731,264.5459,0.00082673,0.00012899,0.0,0 STARLINK-4762,1 53866U 22114BA  23272.59664859  .00012899  00000-0  82673-3 0  9994,2 53866  53.2158 309.0891 0001735  95.5731 264.5459 15.08855443 58179,6917.833,95.437,540.898,538.498,0.0
53866.0,STARLINK-4762,PAYLOAD,2023-09-30 09:23:47,15.08859233,0.0001715,53.2161,305.5223,92.296,267.8229,0.00044668,6.832e-05,0.0,0 STARLINK-4762,1 53866U 22114BA  23273.39152169  .00006832  00000-0  44668-3 0  9991,2 53866  53.2161 305.5223 0001715  92.2960 267.8229 15.08859233 58294,6917.822,95.436,540.873,538.5,0.0
53866.0,STARLINK-4762,PAYLOAD,2023-10-01 01:17:38,15.08849759,0.0001848,53.2165,302.5531,102.523,257.5969,6.8357e-05,8e-06,0.0,0 STARLINK-4762,1 53866U 22114BA  23274.05392100  .00000800  00000-0  68357-4 0  9997,2 53866  53.2165 302.5531 0001848 102.5230 257.5969 15.08849759 58399,6917.851,95.437,540.994,538.437,0.0
53866.0,STARLINK-4762,PAYLOAD,2023-10-01 09:14:34,15.08839019,0.0001847,53.2162,301.0641,98.8952,261.2249,-7.9206e-05,-1.548e-05,0.0,0 STARLINK-4762,1 53866U 22114BA  23274.38512404 -.00001548  00000-0 -79206-4 0  9991,2 53866  53.2162 301.0641 0001847  98.8952 261.2249 15.08839019 58446,6917.883,95.438,541.026,538.471,0.0
53866.0,STARLINK-4762,PAYLOAD,2023-10-01 18:46:53,15.08841955,0.0001662,53.2157,299.2782,87.6517,272.4666,-4.7424e-05,-1.043e-05,0.0,0 STARLINK-4762,1 53866U 22114BA  23274.78256497 -.00001043  00000-0 -47424-4 0  9999,2 53866  53.2157 299.2782 0001662  87.6517 272.4666 15.08841955 59048,6917.874,95.437,540.889,538.59,0.0
